{
    "links": {
        "self": "http://www.neowsapp.com/rest/v1/neo/3789616?api_key=iIulBulltgU6a56xZRHN4H3l9WmuAYTsLGpBGhQ2"
    },
    "id": "3789616",
    "neo_reference_id": "3789616",
    "name": "(2017 WG13)",
    "designation": "2017 WG13",
    "nasa_jpl_url": "http://ssd.jpl.nasa.gov/sbdb.cgi?sstr=3789616",
    "absolute_magnitude_h": 23.8,
    "estimated_diameter": {
        "kilometers": {
            "estimated_diameter_min": 0.046190746,
            "estimated_diameter_max": 0.1032856481
        },
        "meters": {
            "estimated_diameter_min": 46.1907460282,
            "estimated_diameter_max": 103.2856480504
        },
        "miles": {
            "estimated_diameter_min": 0.0287015901,
            "estimated_diameter_max": 0.0641787064
        },
        "feet": {
            "estimated_diameter_min": 151.544447199,
            "estimated_diameter_max": 338.8636855496
        }
    },
    "is_potentially_hazardous_asteroid": false,
    "close_approach_data": [
        {
            "close_approach_date": "2017-11-08",
            "close_approach_date_full": "2017-Nov-08 01:12",
            "epoch_date_close_approach": 1510103520000,
            "relative_velocity": {
                "kilometers_per_second": "10.4711712022",
                "kilometers_per_hour": "37696.2163279362",
                "miles_per_hour": "23422.9628622112"
            },
            "miss_distance": {
                "astronomical": "0.0859501405",
                "lunar": "33.4346046545",
                "kilometers": "12857957.945000735",
                "miles": "7989564.585990743"
            },
            "orbiting_body": "Earth"
        }
    ],
    "orbital_data": {
        "orbit_id": "3",
        "orbit_determination_date": "2017-12-10 06:27:27",
        "first_observation_date": "2017-11-22",
        "last_observation_date": "2017-12-09",
        "data_arc_in_days": 17,
        "observations_used": 21,
        "orbit_uncertainty": "8",
        "minimum_orbit_intersection": ".0758717",
        "jupiter_tisserand_invariant": "4.035",
        "epoch_osculation": "2458080.5",
        "eccentricity": ".4603938592424871",
        "semi_major_axis": "1.723900269563962",
        "inclination": "6.03535930911117",
        "ascending_node_longitude": "270.0542156027741",
        "orbital_period": "826.7355887238526",
        "perihelion_distance": ".9302271715102459",
        "perihelion_argument": "90.05358845744941",
        "aphelion_distance": "2.517573367617679",
        "perihelion_time": "2458030.453172364910",
        "mean_anomaly": "21.79276928968691",
        "mean_motion": ".4354475661991221",
        "equinox": "J2000",
        "orbit_class": {
            "orbit_class_type": "APO",
            "orbit_class_description": "Near-Earth asteroid orbits which cross the Earth’s orbit similar to that of 1862 Apollo",
            "orbit_class_range": "a (semi-major axis) > 1.0 AU; q (perihelion) < 1.017 AU"
        }
    },
    "is_sentry_object": false
}